METOP-A                 
1 29499U 06044A   21322.55231987  .00000034  00000-0  30016-4 0  9998
2 29499  98.4613 355.5511 0033219 304.5656 174.7326 14.29181154779771
